[{"OBJECT_NAME":"STARLINK-1433","OBJECT_ID":"2020-035BG","EPOCH":"2026-03-09T22:30:41.376096","MEAN_MOTION":15.54765909,"ECCENTRICITY":0.0007594,"INCLINATION":53.0512,"RA_OF_ASC_NODE":19.8564,"ARG_OF_PERICENTER":101.9471,"MEAN_ANOMALY":258.2391,"EPHEMERIS_TYPE":0,"CLASSIFICATION_TYPE":"U","NORAD_CAT_ID":45711,"ELEMENT_SET_NO":999,"REV_AT_EPOCH":31940,"BSTAR":0.00092423501,"MEAN_MOTION_DOT":0.00062622,"MEAN_MOTION_DDOT":0},{"OBJECT_NAME":"FENGYUN 1C DEB","OBJECT_ID":"1999-025BGL","EPOCH":"2026-03-09T07:30:56.932416","MEAN_MOTION":15.47792324,"ECCENTRICITY":0.00422427,"INCLINATION":98.9801,"RA_OF_ASC_NODE":196.8552,"ARG_OF_PERICENTER":197.9503,"MEAN_ANOMALY":162.0253,"EPHEMERIS_TYPE":0,"CLASSIFICATION_TYPE":"U","NORAD_CAT_ID":31090,"ELEMENT_SET_NO":999,"REV_AT_EPOCH":2170,"BSTAR":0.0021818175,"MEAN_MOTION_DOT":0.00118704,"MEAN_MOTION_DDOT":0}]
